[{"OBJECT_NAME":"ONEWEB-0599","OBJECT_ID":"2023-004R","EPOCH":"2026-05-02T02:00:17.049888","MEAN_MOTION":13.17649181,"ECCENTRICITY":0.0001933,"INCLINATION":87.9177,"RA_OF_ASC_NODE":15.0271,"ARG_OF_PERICENTER":74.3999,"MEAN_ANOMALY":285.7346,"EPHEMERIS_TYPE":0,"CLASSIFICATION_TYPE":"U","NORAD_CAT_ID":55155,"ELEMENT_SET_NO":999,"REV_AT_EPOCH":16141,"BSTAR":0.00022251,"MEAN_MOTION_DOT":9.9e-07,"MEAN_MOTION_DDOT":0.0},{"OBJECT_NAME":"ONEWEB-0614","OBJECT_ID":"2023-004S","EPOCH":"2026-05-02T03:33:25.787232","MEAN_MOTION":13.1141704,"ECCENTRICITY":0.0001772,"INCLINATION":87.8923,"RA_OF_ASC_NODE":30.2325,"ARG_OF_PERICENTER":85.8471,"MEAN_ANOMALY":274.286,"EPHEMERIS_TYPE":0,"CLASSIFICATION_TYPE":"U","NORAD_CAT_ID":55156,"ELEMENT_SET_NO":999,"REV_AT_EPOCH":15980,"BSTAR":-0.0010495,"MEAN_MOTION_DOT":-3.59e-06,"MEAN_MOTION_DDOT":0.0},{"OBJECT_NAME":"ONEWEB-0616","OBJECT_ID":"2023-004T","EPOCH":"2026-05-02T03:01:01.884000","MEAN_MOTION":13.17649012,"ECCENTRICITY":0.0002634,"INCLINATION":87.9176,"RA_OF_ASC_NODE":15.0214,"ARG_OF_PERICENTER":68.8261,"MEAN_ANOMALY":291.3152,"EPHEMERIS_TYPE":0,"CLASSIFICATION_TYPE":"U","NORAD_CAT_ID":55157,"ELEMENT_SET_NO":999,"REV_AT_EPOCH":16163,"BSTAR":0.000147,"MEAN_MOTION_DOT":7e-07,"MEAN_MOTION_DDOT":0.0},{"OBJECT_NAME":"ONEWEB-0617","OBJECT_ID":"2023-004U","EPOCH":"2026-05-02T03:16:20.320320","MEAN_MOTION":13.11416573,"ECCENTRICITY":0.0001597,"INCLINATION":87.8928,"RA_OF_ASC_NODE":30.2238,"ARG_OF_PERICENTER":92.2643,"MEAN_ANOMALY":267.8668,"EPHEMERIS_TYPE":0,"CLASSIFICATION_TYPE":"U","NORAD_CAT_ID":55158,"ELEMENT_SET_NO":999,"REV_AT_EPOCH":15982,"BSTAR":0.00017734,"MEAN_MOTION_DOT":7.6e-07,"MEAN_MOTION_DDOT":0.0},{"OBJECT_NAME":"ONEWEB-0618","OBJECT_ID":"2023-004V","EPOCH":"2026-05-02T03:45:48.377952","MEAN_MOTION":15.12751785,"ECCENTRICITY":0.0015309,"INCLINATION":86.9136,"RA_OF_ASC_NODE":196.3064,"ARG_OF_PERICENTER":104.0328,"MEAN_ANOMALY":256.2615,"EPHEMERIS_TYPE":0,"CLASSIFICATION_TYPE":"U","NORAD_CAT_ID":55159,"ELEMENT_SET_NO":999,"REV_AT_EPOCH":17530,"BSTAR":0.00042820000000000005,"MEAN_MOTION_DOT":7.557e-05,"MEAN_MOTION_DDOT":0.0},{"OBJECT_NAME":"ONEWEB-0619","OBJECT_ID":"2023-004W","EPOCH":"2026-05-02T01:57:51.027840","MEAN_MOTION":13.17649575,"ECCENTRICITY":0.0002123,"INCLINATION":87.9188,"RA_OF_ASC_NODE":15.0071,"ARG_OF_PERICENTER":89.9875,"MEAN_ANOMALY":270.15,"EPHEMERIS_TYPE":0,"CLASSIFICATION_TYPE":"U","NORAD_CAT_ID":55160,"ELEMENT_SET_NO":999,"REV_AT_EPOCH":16152,"BSTAR":9.387700000000001e-05,"MEAN_MOTION_DOT":4.9e-07,"MEAN_MOTION_DDOT":0.0},{"OBJECT_NAME":"ONEWEB-0620","OBJECT_ID":"2023-004X","EPOCH":"2026-05-02T03:09:01.448064","MEAN_MOTION":13.11416499,"ECCENTRICITY":0.0001551,"INCLINATION":87.8922,"RA_OF_ASC_NODE":30.2358,"ARG_OF_PERICENTER":74.7143,"MEAN_ANOMALY":285.4156,"EPHEMERIS_TYPE":0,"CLASSIFICATION_TYPE":"U","NORAD_CAT_ID":55161,"ELEMENT_SET_NO":999,"REV_AT_EPOCH":15979,"BSTAR":0.00085481,"MEAN_MOTION_DOT":3.16e-06,"MEAN_MOTION_DDOT":0.0},{"OBJECT_NAME":"ONEWEB-0621","OBJECT_ID":"2023-004Y","EPOCH":"2026-05-02T03:48:04.104576","MEAN_MOTION":13.11418676,"ECCENTRICITY":0.0001807,"INCLINATION":87.8934,"RA_OF_ASC_NODE":30.2151,"ARG_OF_PERICENTER":86.5635,"MEAN_ANOMALY":273.5699,"EPHEMERIS_TYPE":0,"CLASSIFICATION_TYPE":"U","NORAD_CAT_ID":55162,"ELEMENT_SET_NO":999,"REV_AT_EPOCH":15977,"BSTAR":-0.0012422,"MEAN_MOTION_DOT":-4.28e-06,"MEAN_MOTION_DDOT":0.0},{"OBJECT_NAME":"ONEWEB-0622","OBJECT_ID":"2023-004Z","EPOCH":"2026-05-02T03:55:24.041280","MEAN_MOTION":13.1141938,"ECCENTRICITY":0.0001332,"INCLINATION":87.8937,"RA_OF_ASC_NODE":30.2159,"ARG_OF_PERICENTER":100.1935,"MEAN_ANOMALY":259.9343,"EPHEMERIS_TYPE":0,"CLASSIFICATION_TYPE":"U","NORAD_CAT_ID":55163,"ELEMENT_SET_NO":999,"REV_AT_EPOCH":15976,"BSTAR":-0.0009749,"MEAN_MOTION_DOT":-3.33e-06,"MEAN_MOTION_DDOT":0.0},{"OBJECT_NAME":"ONEWEB-0623","OBJECT_ID":"2023-004AA","EPOCH":"2026-05-02T03:39:54.113760","MEAN_MOTION":13.17648761,"ECCENTRICITY":0.0001886,"INCLINATION":87.9176,"RA_OF_ASC_NODE":15.0289,"ARG_OF_PERICENTER":105.5812,"MEAN_ANOMALY":254.5528,"EPHEMERIS_TYPE":0,"CLASSIFICATION_TYPE":"U","NORAD_CAT_ID":55164,"ELEMENT_SET_NO":999,"REV_AT_EPOCH":16152,"BSTAR":0.00022778999999999999,"MEAN_MOTION_DOT":1.01e-06,"MEAN_MOTION_DDOT":0.0},{"OBJECT_NAME":"ONEWEB-0624","OBJECT_ID":"2023-004AB","EPOCH":"2026-05-02T02:07:19.354080","MEAN_MOTION":13.12927948,"ECCENTRICITY":0.0001804,"INCLINATION":87.8985,"RA_OF_ASC_NODE":359.7562,"ARG_OF_PERICENTER":88.4084,"MEAN_ANOMALY":271.7252,"EPHEMERIS_TYPE":0,"CLASSIFICATION_TYPE":"U","NORAD_CAT_ID":55165,"ELEMENT_SET_NO":999,"REV_AT_EPOCH":16202,"BSTAR":0.00020247,"MEAN_MOTION_DOT":8.6e-07,"MEAN_MOTION_DDOT":0.0},{"OBJECT_NAME":"ONEWEB-0625","OBJECT_ID":"2023-004AC","EPOCH":"2026-05-02T03:25:19.782048","MEAN_MOTION":13.17649492,"ECCENTRICITY":0.0001945,"INCLINATION":87.9177,"RA_OF_ASC_NODE":15.0254,"ARG_OF_PERICENTER":79.2541,"MEAN_ANOMALY":280.881,"EPHEMERIS_TYPE":0,"CLASSIFICATION_TYPE":"U","NORAD_CAT_ID":55166,"ELEMENT_SET_NO":999,"REV_AT_EPOCH":16151,"BSTAR":0.00032512000000000003,"MEAN_MOTION_DOT":1.39e-06,"MEAN_MOTION_DDOT":0.0},{"OBJECT_NAME":"ONEWEB-0626","OBJECT_ID":"2023-004AD","EPOCH":"2026-05-02T03:10:44.042880","MEAN_MOTION":13.1764824,"ECCENTRICITY":0.0001539,"INCLINATION":87.9177,"RA_OF_ASC_NODE":15.0271,"ARG_OF_PERICENTER":68.7021,"MEAN_ANOMALY":291.4274,"EPHEMERIS_TYPE":0,"CLASSIFICATION_TYPE":"U","NORAD_CAT_ID":55167,"ELEMENT_SET_NO":999,"REV_AT_EPOCH":16151,"BSTAR":0.00028344000000000004,"MEAN_MOTION_DOT":1.23e-06,"MEAN_MOTION_DDOT":0.0},{"OBJECT_NAME":"ONEWEB-0627","OBJECT_ID":"2023-004AE","EPOCH":"2026-05-02T02:53:44.344896","MEAN_MOTION":13.17648848,"ECCENTRICITY":0.0001838,"INCLINATION":87.9177,"RA_OF_ASC_NODE":15.0298,"ARG_OF_PERICENTER":98.1881,"MEAN_ANOMALY":261.9459,"EPHEMERIS_TYPE":0,"CLASSIFICATION_TYPE":"U","NORAD_CAT_ID":55168,"ELEMENT_SET_NO":999,"REV_AT_EPOCH":16151,"BSTAR":0.0001682,"MEAN_MOTION_DOT":7.8e-07,"MEAN_MOTION_DDOT":0.0},{"OBJECT_NAME":"ONEWEB-0628","OBJECT_ID":"2023-004AF","EPOCH":"2026-05-02T03:05:51.190080","MEAN_MOTION":13.12442419,"ECCENTRICITY":0.000199,"INCLINATION":87.8987,"RA_OF_ASC_NODE":359.8072,"ARG_OF_PERICENTER":103.0547,"MEAN_ANOMALY":257.0803,"EPHEMERIS_TYPE":0,"CLASSIFICATION_TYPE":"U","NORAD_CAT_ID":55169,"ELEMENT_SET_NO":999,"REV_AT_EPOCH":16199,"BSTAR":0.00026168000000000003,"MEAN_MOTION_DOT":1.07e-06,"MEAN_MOTION_DDOT":0.0},{"OBJECT_NAME":"ONEWEB-0629","OBJECT_ID":"2023-004AG","EPOCH":"2026-05-02T04:07:50.888928","MEAN_MOTION":13.17648077,"ECCENTRICITY":0.0002073,"INCLINATION":87.9177,"RA_OF_ASC_NODE":15.0161,"ARG_OF_PERICENTER":86.9016,"MEAN_ANOMALY":273.2353,"EPHEMERIS_TYPE":0,"CLASSIFICATION_TYPE":"U","NORAD_CAT_ID":55170,"ELEMENT_SET_NO":999,"REV_AT_EPOCH":16152,"BSTAR":0.00019334000000000002,"MEAN_MOTION_DOT":8.8e-07,"MEAN_MOTION_DDOT":0.0}]