ONEWEB-0599             
1 55155U 23004R   26122.08353067  .00000099  00000+0  22251-3 0  9997
2 55155  87.9177  15.0271 0001933  74.3999 285.7346 13.17649181161414
ONEWEB-0614             
1 55156U 23004S   26122.14821513 -.00000359  00000+0 -10495-2 0  9998
2 55156  87.8923  30.2325 0001772  85.8471 274.2860 13.11417040159800
ONEWEB-0616             
1 55157U 23004T   26122.12571625  .00000070  00000+0  14700-3 0  9995
2 55157  87.9176  15.0214 0002634  68.8261 291.3152 13.17649012161636
ONEWEB-0617             
1 55158U 23004U   26122.13634630  .00000076  00000+0  17734-3 0  9999
2 55158  87.8928  30.2238 0001597  92.2643 267.8668 13.11416573159824
ONEWEB-0618             
1 55159U 23004V   26122.15680993  .00007557  00000+0  42820-3 0  9990
2 55159  86.9136 196.3064 0015309 104.0328 256.2615 15.12751785175300
ONEWEB-0619             
1 55160U 23004W   26122.08184060  .00000049  00000+0  93877-4 0  9996
2 55160  87.9188  15.0071 0002123  89.9875 270.1500 13.17649575161526
ONEWEB-0620             
1 55161U 23004X   26122.13126676  .00000316  00000+0  85481-3 0  9990
2 55161  87.8922  30.2358 0001551  74.7143 285.4156 13.11416499159796
ONEWEB-0621             
1 55162U 23004Y   26122.15838084 -.00000428  00000+0 -12422-2 0  9996
2 55162  87.8934  30.2151 0001807  86.5635 273.5699 13.11418676159779
ONEWEB-0622             
1 55163U 23004Z   26122.16347270 -.00000333  00000+0 -97490-3 0  9994
2 55163  87.8937  30.2159 0001332 100.1935 259.9343 13.11419380159766
ONEWEB-0623             
1 55164U 23004AA  26122.15270965  .00000101  00000+0  22779-3 0  9999
2 55164  87.9176  15.0289 0001886 105.5812 254.5528 13.17648761161521
ONEWEB-0624             
1 55165U 23004AB  26122.08841845  .00000086  00000+0  20247-3 0  9993
2 55165  87.8985 359.7562 0001804  88.4084 271.7252 13.12927948162024
ONEWEB-0625             
1 55166U 23004AC  26122.14259007  .00000139  00000+0  32512-3 0  9991
2 55166  87.9177  15.0254 0001945  79.2541 280.8810 13.17649492161515
ONEWEB-0626             
1 55167U 23004AD  26122.13245420  .00000123  00000+0  28344-3 0  9996
2 55167  87.9177  15.0271 0001539  68.7021 291.4274 13.17648240161512
ONEWEB-0627             
1 55168U 23004AE  26122.12065214  .00000078  00000+0  16820-3 0  9992
2 55168  87.9177  15.0298 0001838  98.1881 261.9459 13.17648848161516
ONEWEB-0628             
1 55169U 23004AF  26122.12906470  .00000107  00000+0  26168-3 0  9990
2 55169  87.8987 359.8072 0001990 103.0547 257.0803 13.12442419161990
ONEWEB-0629             
1 55170U 23004AG  26122.17211677  .00000088  00000+0  19334-3 0  9990
2 55170  87.9177  15.0161 0002073  86.9016 273.2353 13.17648077161529
